{"spkid": "50825502", "covariance": {"epoch": "2458518.5", "labels": ["e", "q", "tp", "node", "peri", "i"], "data": [["8.445675197870622E-16", "-2.870193431474804E-15", "1.205106421308801E-13", "2.224163631770009E-13", "4.155678924426945E-14", "1.171629483391569E-13"], ["-2.870193431474804E-15", "9.820809015136138E-15", "-4.272726952964957E-13", "-7.841665599435721E-13", "-1.235008224243166E-13", "-4.132108014754027E-13"], ["1.205106421308801E-13", "-4.272726952964957E-13", "9.212250755250033E-11", "1.018560327741216E-10", "-3.449620339881777E-11", "6.517123508822286E-11"], ["2.224163631770009E-13", "-7.841665599435721E-13", "1.018560327741216E-10", "1.377347753426448E-9", "-1.276949045147713E-9", "3.259326676526369E-10"], ["4.155678924426945E-14", "-1.235008224243166E-13", "-3.449620339881777E-11", "-1.276949045147713E-9", "1.283828850380108E-9", "-2.763622618855111E-10"], ["1.171629483391569E-13", "-4.132108014754027E-13", "6.517123508822286E-11", "3.259326676526369E-10", "-2.763622618855111E-10", "1.23294698430772E-10"]], "elements": [{"label": "e", "units": null, "value": ".7733464820529402", "title": "eccentricity", "name": "e", "sigma": 2.90614438696198e-08}, {"name": "q", "sigma": 9.90999950309592e-08, "title": "perihelion distance", "value": ".7690224466950875", "units": "au", "label": "q"}, {"title": "time of perihelion passage", "value": "2458376.668481229062", "units": "TDB", "name": "tp", "sigma": 9.59804706971686e-06, "label": "tp"}, {"units": "deg", "value": "240.5196370344748", "title": "longitude of the ascending node", "name": "om", "sigma": 3.7112636034462e-05, "label": "node"}, {"name": "w", "sigma": 3.58305574946875e-05, "value": "120.756937401832", "title": "argument of perihelion", "units": "deg", "label": "peri"}, {"name": "i", "sigma": 1.11038145891748e-05, "units": "deg", "title": "inclination", "value": "10.24205913138282", "label": "i"}]}, "elements": [{"sigma": "2.8819E-8", "name": "e", "units": null, "title": "eccentricity", "value": ".774396509286909", "label": "e"}, {"label": "a", "value": "3.385781067707487", "title": "semi-major axis", "units": "au", "name": "a", "sigma": "3.381E-8"}, {"name": "q", "sigma": "9.8096E-8", "units": "au", "title": "perihelion distance", "value": ".7638440276651056", "label": "q"}, {"label": "i", "units": "deg", "title": "inclination; angle with respect to x-y ecliptic plane", "value": "10.26142647256755", "sigma": "1.1108E-5", "name": "i"}, {"label": "node", "units": "deg", "title": "longitude of the ascending node", "value": "240.2525409888981", "sigma": "3.7145E-5", "name": "om"}, {"label": "peri", "title": "argument of perihelion", "value": "120.9518006734397", "units": "deg", "sigma": "3.5843E-5", "name": "w"}, {"label": "M", "sigma": "6.8531E-6", "name": "ma", "title": "mean anomaly", "value": "85.65281303834465", "units": "deg"}, {"name": "tp", "sigma": "3.544E-5", "units": "TDB", "value": "2460659.090508442460", "title": "time of perihelion passage", "label": "tp"}, {"label": "period", "title": "sidereal orbital period", "value": "2275.551847590334", "units": "d", "name": "per", "sigma": "3.4085E-5"}, {"label": "n", "sigma": "2.3697E-9", "name": "n", "units": "deg/d", "value": ".1582033827887584", "title": "mean motion"}, {"label": "Q", "units": "au", "title": "aphelion distance", "value": "6.007718107749869", "sigma": "5.9992E-8", "name": "ad"}], "epoch": "2461200.5"}